[{"name":"QB50P1","line1":"1 40025U 14033R   26177.24478524  .00009878  00000+0  48340-3 0  9994","line2":"2 40025  98.0964 189.0261 0008742 183.1826 176.9352 15.18390211654409"},{"name":"DTUSAT-2","line1":"1 40030U 14033W   26176.95586415  .00007840  00000+0  42202-3 0  9994","line2":"2 40030  98.0864 175.2400 0007521 192.4469 167.6577 15.15119431654019"},{"name":"QB50P2","line1":"1 40032U 14033Y   26177.74175566  .00007405  00000+0  39703-3 0  9994","line2":"2 40032  98.0751 175.2171 0008820 135.1022 225.0923 15.15275348654118"},{"name":"PERSEUS-M1","line1":"1 40039U 14033AF  26177.67005046  .00001874  00000+0  17384-3 0  9993","line2":"2 40039  97.9648 121.9576 0009782 265.6339  94.3764 14.95663200652059"},{"name":"POLYITAN-1","line1":"1 40042U 14033AJ  26176.60092591  .00023755  00000+0  73319-3 0  9992","line2":"2 40042  98.0941 203.6586 0008872 118.2869 241.9268 15.33535945654889"},{"name":"TIGRISAT","line1":"1 40043U 14033AK  26177.68284904  .00001731  00000+0  20385-3 0  9998","line2":"2 40043  97.7842 327.4774 0050124  44.7680 315.7563 14.85194115647034"},{"name":"CANX-4","line1":"1 40055U 14034C   26177.60892005  .00000841  00000+0  11506-3 0  9997","line2":"2 40055  98.3111  53.2673 0012436 347.1728  12.9165 14.81280105645923"},{"name":"CANX-5","line1":"1 40056U 14034D   26177.60724345  .00000848  00000+0  11591-3 0  9990","line2":"2 40056  98.3114  53.3098 0012441 347.3875  12.7023 14.81297429636737"},{"name":"GONETS-M 10","line1":"1 40063U 14036C   26177.72965715  .00000017  00000+0  49836-4 0  9993","line2":"2 40063  82.5114 301.7469 0022919 120.6532 239.6811 12.42945978543438"},{"name":"METEOR-M 2","line1":"1 40069U 14037A   26177.78902971 -.00000083  00000+0 -18585-4 0  9993","line2":"2 40069  98.5112 153.1870 0006308  20.2423 339.9004 14.21463000620683"},{"name":"DX1","line1":"1 40071U 14037C   26177.76312729  .00001412  00000+0  15287-3 0  9990","line2":"2 40071  98.3862 140.0454 0005892 236.6549 123.4103 14.90009731647530"},{"name":"UKUBE-1","line1":"1 40074U 14037F   26177.48946123  .00008811  00000+0  49360-3 0  9992","line2":"2 40074  98.4237 181.7392 0003036 117.7936 242.3600 15.13689775649960"},{"name":"GAOFEN-2","line1":"1 40118U 14049A   26177.63579637  .00000703  00000+0  97881-4 0  9997","line2":"2 40118  98.0110 241.8342 0006724 191.9865 168.1189 14.80908779640633"},{"name":"BRITE-PL2 (HEWELIUSZ)","line1":"1 40119U 14049B   26177.54513355  .00001709  00000+0  16299-3 0  9993","line2":"2 40119  97.9106 289.6176 0015377  79.9676 280.3278 14.94627428642846"},{"name":"CBERS 4","line1":"1 40336U 14079A   26177.58637079  .00000318  00000+0  12518-3 0  9996","line2":"2 40336  98.3532 234.1233 0001567  54.4598 305.6734 14.35512145605303"},{"name":"SMAP","line1":"1 40376U 15003A   26177.58418211  .00000397  00000+0  85818-4 0  9994","line2":"2 40376  98.1276 184.5455 0001429  98.5514 261.5851 14.63374091608993"},{"name":"GONETS-M 11","line1":"1 40552U 15020A   26177.74856968  .00000427  00000+0  30097-2 0  9993","line2":"2 40552  82.4870  25.0333 0016333 345.0105  15.0489 12.42877643509923"},{"name":"GONETS-M 12","line1":"1 40553U 15020B   26177.72195564  .00000027  00000+0  12260-3 0  9999","line2":"2 40553  82.4904  26.1762 0014891 329.9947  30.0278 12.42891269509914"},{"name":"GONETS-M 13","line1":"1 40554U 15020C   26177.69559690  .00000090  00000+0  57956-3 0  9991","line2":"2 40554  82.4866  24.8048 0013225 314.8283  45.1721 12.42871193509880"},{"name":"DMC3-FM1","line1":"1 40715U 15032A   26177.76875756  .00000513  00000+0  64957-4 0  9995","line2":"2 40715  97.6457  42.5675 0006461  34.0943 326.0687 14.85747263591336"},{"name":"DMC3-FM2","line1":"1 40716U 15032B   26177.72342455  .00001066  00000+0  12858-3 0  9993","line2":"2 40716  97.6512  44.1042 0007094  38.7539 321.4185 14.85755469591328"},{"name":"DMC3-FM3","line1":"1 40717U 15032C   26177.74681682  .00000829  00000+0  10132-3 0  9993","line2":"2 40717  97.6565  45.8860 0006385  39.9024 320.2660 14.85745314591331"},{"name":"CARBONITE 1 (CBNT-1)","line1":"1 40718U 15032D   26177.75971498  .00001683  00000+0  21001-3 0  9998","line2":"2 40718  97.6510 355.4257 0012934 263.3673  96.6069 14.83613669590760"},{"name":"LILACSAT-2","line1":"1 40908U 15049K   26177.75265995  .00017374  00000+0  29262-3 0  9996","line2":"2 40908  97.4638 214.9588 0006419 202.9560 157.1406 15.51748827597239"},{"name":"COSMOS 2507 (RODNIK-S *)","line1":"1 40920U 15050A   26177.73056861 -.00000019  00000+0 -20649-3 0  9990","line2":"2 40920  82.4925  73.7284 0009772 336.1841  23.8785 12.42926769488044"},{"name":"COSMOS 2508 (RODNIK-S *)","line1":"1 40921U 15050B   26177.76617692  .00000036  00000+0  18559-3 0  9993","line2":"2 40921  82.4877  72.2076 0014807   6.9263 353.2018 12.42914432488031"}]