OBJECT_NAME,OBJECT_ID,EPOCH,MEAN_MOTION,ECCENTRICITY,INCLINATION,RA_OF_ASC_NODE,ARG_OF_PERICENTER,MEAN_ANOMALY,EPHEMERIS_TYPE,CLASSIFICATION_TYPE,NORAD_CAT_ID,ELEMENT_SET_NO,REV_AT_EPOCH,BSTAR,MEAN_MOTION_DOT,MEAN_MOTION_DDOT
QB50P1,2014-033R,2026-06-26T05:52:29.444736,15.18390211,.0008742,98.0964,189.0261,183.1826,176.9352,0,U,40025,999,65440,.4834E-3,.9878E-4,0
DTUSAT-2,2014-033W,2026-06-25T22:56:26.662560,15.15119431,.00075218,98.0864,175.2400,192.4469,167.6577,0,U,40030,999,65401,.42201993E-3,.784E-4,0
QB50P2,2014-033Y,2026-06-26T17:48:07.689024,15.15275348,.000882,98.0751,175.2171,135.1022,225.0923,0,U,40032,999,65411,.39703E-3,.7405E-4,0
PERSEUS-M1,2014-033AF,2026-06-26T16:04:52.359744,14.95663200,.0009782,97.9648,121.9576,265.6339,94.3764,0,U,40039,999,65205,.17384E-3,.1874E-4,0
POLYITAN-1,2014-033AJ,2026-06-25T14:25:19.998624,15.33535945,.00088721,98.0941,203.6586,118.2869,241.9268,0,U,40042,999,65488,.73318562E-3,.23755E-3,0
TIGRISAT,2014-033AK,2026-06-26T16:23:18.157056,14.85194115,.0050124,97.7842,327.4774,44.7680,315.7563,0,U,40043,999,64703,.20385E-3,.1731E-4,0
CANX-4,2014-034C,2026-06-26T14:36:50.692320,14.81280105,.0012436,98.3111,53.2673,347.1728,12.9165,0,U,40055,999,64592,.11506E-3,.841E-5,0
CANX-5,2014-034D,2026-06-26T14:34:25.834080,14.81297429,.0012441,98.3114,53.3098,347.3875,12.7023,0,U,40056,999,63673,.11591E-3,.848E-5,0
GONETS-M 10,2014-036C,2026-06-26T17:30:42.377760,12.42945978,.0022919,82.5114,301.7469,120.6532,239.6811,0,U,40063,999,54343,.49836E-4,.17E-6,0
METEOR-M 2,2014-037A,2026-06-26T18:56:12.166944,14.21463000,.0006308,98.5112,153.1870,20.2423,339.9004,0,U,40069,999,62068,-.18585E-4,-.83E-6,0
DX1,2014-037C,2026-06-26T18:18:54.197856,14.90009731,.0005892,98.3862,140.0454,236.6549,123.4103,0,U,40071,999,64753,.15287E-3,.1412E-4,0
UKUBE-1,2014-037F,2026-06-26T11:44:49.450272,15.13689775,.0003036,98.4237,181.7392,117.7936,242.3600,0,U,40074,999,64996,.4936E-3,.8811E-4,0
GAOFEN-2,2014-049A,2026-06-26T15:15:32.806368,14.80908779,.00067248,98.0110,241.8342,191.9865,168.1189,0,U,40118,999,64063,.97880973E-4,.703E-5,0
BRITE-PL2 (HEWELIUSZ),2014-049B,2026-06-26T13:04:59.538720,14.94627428,.00153772,97.9106,289.6176,79.9676,280.3278,0,U,40119,999,64284,.16298632E-3,.1709E-4,0
CBERS 4,2014-079A,2026-06-26T14:04:22.436256,14.35512145,.00015679,98.3532,234.1233,54.4598,305.6734,0,U,40336,999,60530,.12518312E-3,.318E-5,0
SMAP,2015-003A,2026-06-26T14:01:13.334304,14.63374091,.00014295,98.1276,184.5455,98.5514,261.5851,0,U,40376,999,60899,.85817563E-4,.397E-5,0
GONETS-M 11,2015-020A,2026-06-26T17:57:56.420352,12.42877643,.0016333,82.4870,25.0333,345.0105,15.0489,0,U,40552,999,50992,.30097E-2,.427E-5,0
GONETS-M 12,2015-020B,2026-06-26T17:19:36.967296,12.42891269,.0014891,82.4904,26.1762,329.9947,30.0278,0,U,40553,999,50991,.1226E-3,.27E-6,0
GONETS-M 13,2015-020C,2026-06-26T16:41:39.572160,12.42871193,.0013225,82.4866,24.8048,314.8283,45.1721,0,U,40554,999,50988,.57956E-3,.9E-6,0
DMC3-FM1,2015-032A,2026-06-26T18:27:00.653184,14.85747263,.0006461,97.6457,42.5675,34.0943,326.0687,0,U,40715,999,59133,.64957E-4,.513E-5,0
DMC3-FM2,2015-032B,2026-06-26T17:21:43.881120,14.85755469,.0007094,97.6512,44.1042,38.7539,321.4185,0,U,40716,999,59132,.12858E-3,.1066E-4,0
DMC3-FM3,2015-032C,2026-06-26T17:55:24.973248,14.85745314,.0006385,97.6565,45.8860,39.9024,320.2660,0,U,40717,999,59133,.10132E-3,.829E-5,0
CARBONITE 1 (CBNT-1),2015-032D,2026-06-26T18:13:59.374272,14.83613669,.0012934,97.6510,355.4257,263.3673,96.6069,0,U,40718,999,59076,.21001E-3,.1683E-4,0
LILACSAT-2,2015-049K,2026-06-26T18:03:49.819680,15.51748827,.0006419,97.4638,214.9588,202.9560,157.1406,0,U,40908,999,59723,.29262E-3,.17374E-3,0
COSMOS 2507 (RODNIK-S 13),2015-050A,2026-06-26T17:32:01.127904,12.42926769,.0009772,82.4925,73.7284,336.1841,23.8785,0,U,40920,999,48804,-.20649E-3,-.19E-6,0
COSMOS 2508 (RODNIK-S 14),2015-050B,2026-06-26T18:23:17.685888,12.42914432,.0014807,82.4877,72.2076,6.9263,353.2018,0,U,40921,999,48803,.18559E-3,.36E-6,0
